[
    {
        "Altitude(m)": 569308.7990267785,
        "Argument of Periapsis(deg)": 0.0,
        "Eccentricity": 0.0,
        "Inclination(deg)": 53.0,
        "Latitude(deg)": -46.77329085408003,
        "Longitude(deg)": 142.15509452474998,
        "Mean Anomaly(deg)": -65.45449999999998,
        "RAAN(deg)": 295.00000000000006,
        "Satellite Name": "Starlink Shell 1 1316",
        "Satellite Number": 1316,
        "Semi-Major Axis(m)": 6931778.249405717,
        "Time(s)": 0
    },
    {
        "Altitude(m)": 569184.6901106967,
        "Argument of Periapsis(deg)": 0.00034857847951123687,
        "Eccentricity": 0.0,
        "Inclination(deg)": 53.0,
        "Latitude(deg)": -46.468903389703144,
        "Longitude(deg)": 142.90681558387794,
        "Mean Anomaly(deg)": -64.82766879644329,
        "RAAN(deg)": 294.99948122992254,
        "Satellite Name": "Starlink Shell 1 1316",
        "Satellite Number": 1316,
        "Semi-Major Axis(m)": 6931778.249405717,
        "Time(s)": 10
    },
    {
        "Altitude(m)": 569058.1561451801,
        "Argument of Periapsis(deg)": 0.0006971569590224737,
        "Eccentricity": 0.0,
        "Inclination(deg)": 53.0,
        "Latitude(deg)": -46.15905889337095,
        "Longitude(deg)": 143.6496868751681,
        "Mean Anomaly(deg)": -64.20083759288659,
        "RAAN(deg)": 294.9989624598451,
        "Satellite Name": "Starlink Shell 1 1316",
        "Satellite Number": 1316,
        "Semi-Major Axis(m)": 6931778.249405717,
        "Time(s)": 20
    },
    {
        "Altitude(m)": 568929.2471007761,
        "Argument of Periapsis(deg)": 0.0010457354385337105,
        "Eccentricity": 0.0,
        "Inclination(deg)": 53.0,
        "Latitude(deg)": -45.84387470969079,
        "Longitude(deg)": 144.38374996146743,
        "Mean Anomaly(deg)": -63.574006389329895,
        "RAAN(deg)": 294.9984436897676,
        "Satellite Name": "Starlink Shell 1 1316",
        "Satellite Number": 1316,
        "Semi-Major Axis(m)": 6931778.249405717,
        "Time(s)": 30
    },
    {
        "Altitude(m)": 568798.0138562755,
        "Argument of Periapsis(deg)": 0.0013943139180449475,
        "Eccentricity": 0.0,
        "Inclination(deg)": 53.0,
        "Latitude(deg)": -45.523466911393186,
        "Longitude(deg)": 145.10905475425105,
        "Mean Anomaly(deg)": -62.94717518577305,
        "RAAN(deg)": 294.99792491969015,
        "Satellite Name": "Starlink Shell 1 1316",
        "Satellite Number": 1316,
        "Semi-Major Axis(m)": 6931778.249405717,
        "Time(s)": 40
    },
    {
        "Altitude(m)": 568664.5081763931,
        "Argument of Periapsis(deg)": 0.0017428923975561844,
        "Eccentricity": 0.0,
        "Inclination(deg)": 53.0,
        "Latitude(deg)": -45.19795021026399,
        "Longitude(deg)": 145.8256579862386,
        "Mean Anomaly(deg)": -62.3203439822164,
        "RAAN(deg)": 294.9974061496127,
        "Satellite Name": "Starlink Shell 1 1316",
        "Satellite Number": 1316,
        "Semi-Major Axis(m)": 6931778.249405717,
        "Time(s)": 50
    },
    {
        "Altitude(m)": 568528.7826890707,
        "Argument of Periapsis(deg)": 0.002091470877067421,
        "Eccentricity": 0.0,
        "Inclination(deg)": 53.0,
        "Latitude(deg)": -44.86743787722253,
        "Longitude(deg)": 146.53362320909002,
        "Mean Anomaly(deg)": -61.69351277865971,
        "RAAN(deg)": 294.99688737953517,
        "Satellite Name": "Starlink Shell 1 1316",
        "Satellite Number": 1316,
        "Semi-Major Axis(m)": 6931778.249405717,
        "Time(s)": 60
    },
    {
        "Altitude(m)": 568390.8908623451,
        "Argument of Periapsis(deg)": 0.0024400493565786582,
        "Eccentricity": 0.0,
        "Inclination(deg)": 53.0,
        "Latitude(deg)": -44.532041671162446,
        "Longitude(deg)": 147.23302080477208,
        "Mean Anomaly(deg)": -61.06668157510296,
        "RAAN(deg)": 294.9963686094577,
        "Satellite Name": "Starlink Shell 1 1316",
        "Satellite Number": 1316,
        "Semi-Major Axis(m)": 6931778.249405717,
        "Time(s)": 70
    },
    {
        "Altitude(m)": 568250.886980878,
        "Argument of Periapsis(deg)": 0.002788627836089895,
        "Eccentricity": 0.0,
        "Inclination(deg)": 53.0,
        "Latitude(deg)": -44.19187177615287,
        "Longitude(deg)": 147.92392649896033,
        "Mean Anomaly(deg)": -60.439850371546214,
        "RAAN(deg)": 294.99584983938024,
        "Satellite Name": "Starlink Shell 1 1316",
        "Satellite Number": 1316,
        "Semi-Major Axis(m)": 6931778.249405717,
        "Time(s)": 80
    },
    {
        "Altitude(m)": 568108.8261220675,
        "Argument of Periapsis(deg)": 0.0031372063156011316,
        "Eccentricity": 0.0,
        "Inclination(deg)": 53.0,
        "Latitude(deg)": -43.847036746596096,
        "Longitude(deg)": 148.60642140323222,
        "Mean Anomaly(deg)": -59.813019167989566,
        "RAAN(deg)": 294.9953310693028,
        "Satellite Name": "Starlink Shell 1 1316",
        "Satellite Number": 1316,
        "Semi-Major Axis(m)": 6931778.249405717,
        "Time(s)": 90
    },
    {
        "Altitude(m)": 567964.7641318422,
        "Argument of Periapsis(deg)": 0.0034857847951123688,
        "Eccentricity": 0.0,
        "Inclination(deg)": 53.0,
        "Latitude(deg)": -43.49764345992513,
        "Longitude(deg)": 149.28059207399122,
        "Mean Anomaly(deg)": -59.186187964432875,
        "RAAN(deg)": 294.99481229922526,
        "Satellite Name": "Starlink Shell 1 1316",
        "Satellite Number": 1316,
        "Semi-Major Axis(m)": 6931778.249405717,
        "Time(s)": 100
    },
    {
        "Altitude(m)": 567818.7576000654,
        "Argument of Periapsis(deg)": 0.003834363274623606,
        "Eccentricity": 0.0,
        "Inclination(deg)": 53.0,
        "Latitude(deg)": -43.14379707642263,
        "Longitude(deg)": 149.94652907587198,
        "Mean Anomaly(deg)": -58.55935676087613,
        "RAAN(deg)": 294.99429352914785,
        "Satellite Name": "Starlink Shell 1 1316",
        "Satellite Number": 1316,
        "Semi-Major Axis(m)": 6931778.249405717,
        "Time(s)": 110
    },
    {
        "Altitude(m)": 567670.863835602,
        "Argument of Periapsis(deg)": 0.004182941754134842,
        "Eccentricity": 0.0,
        "Inclination(deg)": 53.0,
        "Latitude(deg)": -42.78560100574861,
        "Longitude(deg)": 150.60432707582308,
        "Mean Anomaly(deg)": -57.93252555731938,
        "RAAN(deg)": 294.9937747590704,
        "Satellite Name": "Starlink Shell 1 1316",
        "Satellite Number": 1316,
        "Semi-Major Axis(m)": 6931778.249405717,
        "Time(s)": 120
    },
    {
        "Altitude(m)": 567521.1408410695,
        "Argument of Periapsis(deg)": 0.004531520233646079,
        "Eccentricity": 0.0,
        "Inclination(deg)": 53.0,
        "Latitude(deg)": -42.4231568797639,
        "Longitude(deg)": 151.25408495528941,
        "Mean Anomaly(deg)": -57.30569435376268,
        "RAAN(deg)": 294.99325598899287,
        "Satellite Name": "Starlink Shell 1 1316",
        "Satellite Number": 1316,
        "Semi-Major Axis(m)": 6931778.249405717,
        "Time(s)": 130
    },
    {
        "Altitude(m)": 567369.6472872462,
        "Argument of Periapsis(deg)": 0.0048800987131573164,
        "Eccentricity": 0.0,
        "Inclination(deg)": 53.0,
        "Latitude(deg)": -42.05656453123993,
        "Longitude(deg)": 151.89590442777947,
        "Mean Anomaly(deg)": -56.678863150205984,
        "RAAN(deg)": 294.9927372189154,
        "Satellite Name": "Starlink Shell 1 1316",
        "Satellite Number": 1316,
        "Semi-Major Axis(m)": 6931778.249405717,
        "Time(s)": 140
    },
    {
        "Altitude(m)": 567216.442487189,
        "Argument of Periapsis(deg)": 0.005228677192668553,
        "Eccentricity": 0.0,
        "Inclination(deg)": 53.0,
        "Latitude(deg)": -41.685921978064016,
        "Longitude(deg)": 152.52989018758572,
        "Mean Anomaly(deg)": -56.05203194664919,
        "RAAN(deg)": 294.9922184488379,
        "Satellite Name": "Starlink Shell 1 1316",
        "Satellite Number": 1316,
        "Semi-Major Axis(m)": 6931778.249405717,
        "Time(s)": 150
    },
    {
        "Altitude(m)": 567061.5863700195,
        "Argument of Periapsis(deg)": 0.00557725567217979,
        "Eccentricity": 0.0,
        "Inclination(deg)": 53.0,
        "Latitude(deg)": -41.31132541254938,
        "Longitude(deg)": 153.15615007670846,
        "Mean Anomaly(deg)": -55.4252007430925,
        "RAAN(deg)": 294.9916996787605,
        "Satellite Name": "Starlink Shell 1 1316",
        "Satellite Number": 1316,
        "Semi-Major Axis(m)": 6931778.249405717,
        "Time(s)": 160
    },
    {
        "Altitude(m)": 566905.1394544654,
        "Argument of Periapsis(deg)": 0.0059258341516910265,
        "Eccentricity": 0.0,
        "Inclination(deg)": 53.0,
        "Latitude(deg)": -40.932869195472584,
        "Longitude(deg)": 153.7747937569273,
        "Mean Anomaly(deg)": -54.7983695395358,
        "RAAN(deg)": 294.991180908683,
        "Satellite Name": "Starlink Shell 1 1316",
        "Satellite Number": 1316,
        "Semi-Major Axis(m)": 6931778.249405717,
        "Time(s)": 170
    },
    {
        "Altitude(m)": 566747.1628220651,
        "Argument of Periapsis(deg)": 0.006274412631202263,
        "Eccentricity": 0.0,
        "Inclination(deg)": 53.0,
        "Latitude(deg)": -40.5506458544819,
        "Longitude(deg)": 154.38593291249762,
        "Mean Anomaly(deg)": -54.1715383359791,
        "RAAN(deg)": 294.9906621386055,
        "Satellite Name": "Starlink Shell 1 1316",
        "Satellite Number": 1316,
        "Semi-Major Axis(m)": 6931778.249405717,
        "Time(s)": 180
    }
]